#cP2015  1 19  0  0  0.00000000      96 ORBIT IGb08 HLM  IGS
## 1828  86400.00000000   900.00000000 57041 0.0000000000000
+   31   G01G02G03G04G05G06G07G08G09G10G11G12G13G14G15G16G17
+        G18G19G20G21G22G23G24G25G27G28G29G30G31G32  0  0  0
+          0  0  0  0  0  0  0  0  0  0  0  0  0  0  0  0  0
+          0  0  0  0  0  0  0  0  0  0  0  0  0  0  0  0  0
+          0  0  0  0  0  0  0  0  0  0  0  0  0  0  0  0  0
++         2  2  2  2  2  2  2  3  2  2  2  2  2  2  2  2  2
++         2  2  2  2  2  2  3  2  2  2  2  2  2  2  0  0  0
++         0  0  0  0  0  0  0  0  0  0  0  0  0  0  0  0  0
++         0  0  0  0  0  0  0  0  0  0  0  0  0  0  0  0  0
++         0  0  0  0  0  0  0  0  0  0  0  0  0  0  0  0  0
%c G  cc GPS ccc cccc cccc cccc cccc ccccc ccccc ccccc ccccc
%c cc cc ccc ccc cccc cccc cccc cccc ccccc ccccc ccccc ccccc
%f  1.2500000  1.025000000  0.00000000000  0.000000000000000
%f  0.0000000  0.000000000  0.00000000000  0.000000000000000
%i    0    0    0    0      0      0      0      0         0
%i    0    0    0    0      0      0      0      0         0
/* FINAL ORBIT COMBINATION FROM WEIGHTED AVERAGE OF:        
/* cod emr esa gfz grg jpl mit ngs sio                      
/* REFERENCED TO IGS TIME (IGST) AND TO WEIGHTED MEAN POLE: 
/* PCV:IGS08_1822 OL/AL:FES2004  NONE     Y  ORB:CMB CLK:CMB
*  2015  1 19 14 15  0.00000000
PG01   2665.038972  15037.656656 -21773.317391    -10.009028  7  6  5 123       
PG02  19551.195744 -14500.509166  10370.270040    542.787748  7  8  5 103       
PG03  10081.173309  21257.669317 -12279.753752    158.304104  3  7  7  98       
PG04  -8387.253709  17046.651212 -18771.407400     -5.879641  5  5  3  95       
PG05   8604.453968 -13059.948320  21401.319716   -290.762792  5  4  5  98       
PG06  25767.294088  -5641.889052  -3040.042328     55.984940  5  6  5  96       
PG07  16158.301628   9153.691419  19220.605910    432.890798  2  3  4 106       
PG08 -19391.487955  11951.106073  13280.064838     17.171456  9  9 11 144       
PG09   9486.695902  16559.407589  18461.877275    -59.971097  4  6  4 105       
PG10  21022.242337   4498.865471  15485.435944   -159.466944  6  6  4 111       
PG11  -2436.872813  19751.294032 -18051.413348   -551.927918  6  5     95       
PG12  -6976.038163 -21092.535926 -14800.706571    262.567226  6  6  4 102       
PG13  12907.864783 -22140.283622   7064.568482    -80.243195  9  8  4 102       
PG14 -15873.314205   2482.531886 -20894.418243     95.375682  7  6  3 125       
PG15   1986.855481 -26035.569816  -3887.411915   -227.254904  8  8  5 104       
PG16  -8903.135000  11683.245671  22046.877179   -163.676989  8  7  7 124       
PG17  15277.716857   -264.511430 -21414.558419   -150.886371  9  8  5 121       
PG18 -21293.237946 -15619.368610  -3648.565611    373.394931  8  8  5  95       
PG19  -8228.266400  24990.307079   -242.415010   -497.248013  6  5  3  85       
PG20  20262.912734  17273.551815   -760.484303    280.361228  4  6  5  99       
PG21 -20752.511904  -6112.580486  16340.003806   -407.358819  7  6  6 116       
PG22 -21672.884626  -4939.033599 -14445.184596    309.050159  8  8  6 117       
PG23   2612.537339  23724.524129  11318.195264    -82.803028  6  8  5  74       
PG24    811.239210 -15990.563123 -21195.354928    -42.054072  5  8  9 126       
PG25 -17376.465072 -19840.417003  -3867.664954      2.213852  8  7  5  97       
PG27 -12365.490397  20918.243436  10609.612721     45.406155  7  6  6  99       
PG28  20828.974012  11239.415994 -11529.630852    413.544594  7  8  5 102       
PG29  -6387.414760 -19453.402781  16968.795476    586.880378  1  3  5 115       
PG30  23766.980523   3033.560502  11510.157893    -86.391880  4  4  5 107       
PG31 -25845.881755   6881.786767    -65.538326    325.143892  8  7  5 103       
PG32  -2793.391243  17934.833395 -19564.973733   -243.972131  3  6  5 112       
*  2015  1 19 14 30  0.00000000
PG01    317.529906  15774.962632 -21393.678403    -10.008674  6  6  5 125       
PG02  20609.829120 -14561.572683   7795.567959    542.789710  8  8  5  99       
PG03   8789.282895  20400.944455 -14524.090111    158.325873  3  7  7 126       
PG04 -10349.497708  17549.795399 -17215.538224     -5.879780  6  5  2  88       
PG05  10482.078877 -11452.639082  21499.998921   -290.758083  5  5  6  94       
PG06  25367.380161  -5243.264443  -5839.015115     55.994751  5  6  5 109       
PG07  14045.052898   9893.710070  20449.186424    432.893765  3  4  4 116       
PG08 -20763.610400  12053.961028  10791.258018     17.172002  8  9 11 136       
PG09   8946.748909  18511.834532  16802.331157    -59.981617  5  6  4 102       
PG10  22148.410894   5794.905115  13435.709512   -159.468480  6  6  4 119       
PG11  -4101.327234  20736.005868 -16523.775896   -551.930282  6  4     94       
PG12  -5614.062401 -19935.464705 -16834.553039    262.570235  7  7  4 114       
PG13  12796.047676 -21153.294063   9722.635437    -80.246697  9  8  5 107       
PG14 -15260.400358     84.818584 -21496.033598     95.372649  7  6  4 117       
PG15   2378.396374 -26257.927280  -1086.217539   -227.256865  9  8  5 112       
PG16 -10712.478051   9908.210505  22143.121258   -163.674213  8  7  8 126       
PG17  14705.441138   2198.371334 -21717.773720   -150.888472  8  8  5 122       
PG18 -21313.065190 -16074.159499   -899.928541    373.397174  7  7  4 102       
PG19  -8440.513862  24761.263487   2651.271047   -497.249053  7  5  3 105       
PG20  19876.068078  17408.122149  -3524.562759    280.364952  3  6  6 110       
PG21 -19066.729643  -6881.950364  18034.509053   -407.361785  6  6  6 119       
PG22 -22685.907249  -6164.288501 -12307.130447    309.053536  8  8  5 109       
PG23   2104.598131  24792.036484   8791.472691    -82.805403  7  9  4  80       
PG24   3081.191347 -16709.447929 -20404.842016    -42.054046  4  9 10 121       
PG25 -16808.128123 -19594.161361  -6663.531956      2.211542  8  7  5 111       
PG27 -12307.412812  19548.073203  13022.052939     45.408588  7  6  6 116       
PG28  21593.139513  12242.904567  -8962.617968    413.546735  7  8  5 109       
PG29  -5790.603698 -21179.725687  15001.663772    586.882619  2  3  5 115       
PG30  22416.254646   3598.519567  13820.403177    -86.391742  3  4  5 103       
PG31 -25722.391142   6651.914140  -2926.105199    325.142919  8  8  6  95       
PG32  -4441.225019  16345.632683 -20576.375685   -243.964209  3  6  5 123       
*  2015  1 19 14 45  0.00000000
PG01  -1930.644720  16611.095188 -20646.856560    -10.008283  6  5  4 141       
PG02  21392.605482 -14551.150874   5084.461301    542.791665  8  8  5 114       
PG03   7265.582927  19464.735886 -16517.919961    158.347652  3  7  7 111       
PG04 -12112.606777  18074.743134 -15367.183580     -5.880077  6  5  2  84       
PG05  12427.948723  -9947.675495  21227.034486   -290.753605  6  5  5 100       
PG06  24700.593580  -4706.670808  -8537.417510     56.004595  5  6  6 118       
PG07  11861.868642  10791.015132  21331.681078    432.896641  4  4  3 129       
PG08 -21843.986394  12156.508080   8111.704843     17.173199  8  9 11  76       
PG09   8536.010507  20287.164516  14853.399139    -59.992137  6  7  3 119       
PG10  23143.856417   6876.456525  11154.329412   -159.469641  5  6  5 120       
PG11  -5588.697315  21670.426932 -14720.264991   -551.932644  7  4    104       
PG12  -4024.952939 -18719.600552 -18582.882938    262.572636  8  8  5 120       
PG13  12667.645757 -19877.244800  12213.451204    -80.249713  8  8  5 112       
PG14 -14764.320030  -2386.918018 -21719.404680     95.369261  7  5  4 125       
PG15   2728.841594 -26180.608070   1734.028840   -227.258956  9  9  5 103       
PG16 -12608.310976   8247.809855  21856.583413   -163.671520  8  8  8 133       
PG17  14262.298249   4698.546074 -21637.012309   -150.889994  7  8  4 115       
PG18 -21110.631970 -16337.755826   1863.983693    373.399531  6  7  4 101       
PG19  -8589.613799  24222.748057   5497.917928   -497.250748  7  6  4 102       
PG20  19243.370397  17387.812278  -6228.640788    280.368535  3  6  6 121       
PG21 -17265.579285  -7798.859517  19437.838159   -407.363749  6  6  6 121       
PG22 -23552.200752  -7186.048076  -9956.649561    309.056858  8  8  5 112       
PG23   1691.431016  25591.155789   6110.503550    -82.807962  7  9  4 103       
PG24   5211.972185 -17501.340763 -19262.936212    -42.054967  5  9 10 134       
PG25 -15982.991038 -19189.965260  -9346.016701      2.209226  8  7  5 113       
PG27 -12286.357752  17918.339141  15209.305462     45.410995  7  6  7 126       
PG28  22186.285845  12994.854432  -6238.312629    413.548988  6  8  6 119       
PG29  -5332.857724 -22702.864894  12777.300183    586.884611  3  4  5 112       
PG30  20860.301541   4308.118930  15893.302453    -86.391612  1  4  5 114       
PG31 -25312.661597   6303.154384  -5737.236400    325.142023  8  8  7  96       
PG32  -6240.102741  14774.570670 -21237.312687   -243.956334  4  6  5 114       
EOF
